{
  "norad_id": 63724,
  "name": "KUIPER-00008",
  "history": [
    {
      "epoch": "2026-03-27T07:19:45.136128",
      "apogee_km": 641.2913526989296,
      "perigee_km": 638.7185018683876,
      "latitude_deg": 38.98649053484999,
      "longitude_deg": 125.71681791986339,
      "semi_major_axis_km": 7018.141927283658,
      "eccentricity": 0.0001833,
      "inclination_deg": 51.9042,
      "raan_deg": 9.5345,
      "arg_perigee_deg": 115.2707,
      "mean_anomaly_deg": 244.8444,
      "mean_motion_rev_day": 14.76622705
    }
  ]
}